{
  "type": "FeatureCollection",
  "features": [
    {
      "type": "Feature",
      "properties": {
        "norad_id": 34969,
        "name": "COSMOS 2251 DEB",
        "group": "cosmos-2251-debris",
        "lat": -73.44665129129129,
        "lon": -65.06857862700629,
        "alt_km": 790.8487665195262,
        "timestamp": "2025-12-03T08:58:46.398621+00:00",
        "meta_object_name": "COSMOS 2251 DEB",
        "meta_object_id": "1993-036AEY",
        "meta_epoch": "2025-11-27T22:39:52.818912",
        "meta_mean_motion": 14.32217313,
        "meta_eccentricity": 0.0074445,
        "meta_inclination": 74.0147,
        "meta_ra_of_asc_node": 50.1773,
        "meta_arg_of_pericenter": 186.867,
        "meta_mean_anomaly": 173.1469,
        "meta_ephemeris_type": 0,
        "meta_classification_type": "U",
        "meta_norad_cat_id": 34969,
        "meta_element_set_no": 999,
        "meta_rev_at_epoch": 64925,
        "meta_bstar": 0.00041332,
        "meta_mean_motion_dot": 1.123e-05,
        "meta_mean_motion_ddot": 0,
        "tle_line1": "1 34969U 93036AEY 25331.94436133  .00001123  00000+0  41332-3 0  9991",
        "tle_line2": "2 34969  74.0147  50.1773 0074445 186.8670 173.1469 14.32217313649253"
      },
      "geometry": {
        "type": "Point",
        "coordinates": [
          -65.06857862700629,
          -73.44665129129129
        ]
      }
    },
    {
      "type": "Feature",
      "properties": {
        "norad_id": 34971,
        "name": "COSMOS 2251 DEB",
        "group": "cosmos-2251-debris",
        "lat": 10.52998618989868,
        "lon": 119.75877300263097,
        "alt_km": 658.9400948114999,
        "timestamp": "2025-12-03T08:58:46.398632+00:00",
        "meta_object_name": "COSMOS 2251 DEB",
        "meta_object_id": "1993-036AFA",
        "meta_epoch": "2025-12-02T16:30:25.799040",
        "meta_mean_motion": 14.55607383,
        "meta_eccentricity": 0.0070045,
        "meta_inclination": 73.9781,
        "meta_ra_of_asc_node": 304.1252,
        "meta_arg_of_pericenter": 172.3725,
        "meta_mean_anomaly": 1.4468,
        "meta_ephemeris_type": 0,
        "meta_classification_type": "U",
        "meta_norad_cat_id": 34971,
        "meta_element_set_no": 999,
        "meta_rev_at_epoch": 66026,
        "meta_bstar": 0.00022954,
        "meta_mean_motion_dot": 1.004e-05,
        "meta_mean_motion_ddot": 0,
        "tle_line1": "1 34971U 93036AFA 25336.68779860  .00001004  00000+0  22954-3 0  9994",
        "tle_line2": "2 34971  73.9781 304.1252 0070045 172.3725   1.4468 14.55607383660266"
      },
      "geometry": {
        "type": "Point",
        "coordinates": [
          119.75877300263097,
          10.52998618989868
        ]
      }
    },
    {
      "type": "Feature",
      "properties": {
        "norad_id": 34972,
        "name": "COSMOS 2251 DEB",
        "group": "cosmos-2251-debris",
        "lat": -20.87340708008958,
        "lon": -105.56353724591648,
        "alt_km": 635.9700232220894,
        "timestamp": "2025-12-03T08:58:46.398643+00:00",
        "meta_object_name": "COSMOS 2251 DEB",
        "meta_object_id": "1993-036AFB",
        "meta_epoch": "2025-12-02T16:20:52.687104",
        "meta_mean_motion": 14.7257553,
        "meta_eccentricity": 0.0034548,
        "meta_inclination": 73.9881,
        "meta_ra_of_asc_node": 69.5022,
        "meta_arg_of_pericenter": 229.6952,
        "meta_mean_anomaly": 259.9357,
        "meta_ephemeris_type": 0,
        "meta_classification_type": "U",
        "meta_norad_cat_id": 34972,
        "meta_element_set_no": 999,
        "meta_rev_at_epoch": 87502,
        "meta_bstar": 0.0021421,
        "meta_mean_motion_dot": 0.0001375,
        "meta_mean_motion_ddot": 0,
        "tle_line1": "1 34972U 93036AFB 25336.68116536  .00013750  00000+0  21421-2 0  9998",
        "tle_line2": "2 34972  73.9881  69.5022 0034548 229.6952 259.9357 14.72575530875027"
      },
      "geometry": {
        "type": "Point",
        "coordinates": [
          -105.56353724591648,
          -20.87340708008958
        ]
      }
    },
    {
      "type": "Feature",
      "properties": {
        "norad_id": 34976,
        "name": "COSMOS 2251 DEB",
        "group": "cosmos-2251-debris",
        "lat": 6.987541294628989,
        "lon": 142.56342228789978,
        "alt_km": 674.3254748203371,
        "timestamp": "2025-12-03T08:58:46.398666+00:00",
        "meta_object_name": "COSMOS 2251 DEB",
        "meta_object_id": "1993-036AFF",
        "meta_epoch": "2025-12-02T01:35:05.811072",
        "meta_mean_motion": 14.76206846,
        "meta_eccentricity": 0.00478033,
        "meta_inclination": 74.0574,
        "meta_ra_of_asc_node": 327.1281,
        "meta_arg_of_pericenter": 16.149,
        "meta_mean_anomaly": 47.3762,
        "meta_ephemeris_type": 0,
        "meta_classification_type": "U",
        "meta_norad_cat_id": 34976,
        "meta_element_set_no": 999,
        "meta_rev_at_epoch": 88116,
        "meta_bstar": 0.0014415592,
        "meta_mean_motion_dot": 0.00010144,
        "meta_mean_motion_ddot": 0,
        "tle_line1": "1 34976U 93036AFF 25336.06603948  .00010144  00000+0  14416-2 0  9992",
        "tle_line2": "2 34976  74.0574 327.1281 0047803  16.1490  47.3762 14.76206846881162"
      },
      "geometry": {
        "type": "Point",
        "coordinates": [
          142.56342228789978,
          6.987541294628989
        ]
      }
    },
    {
      "type": "Feature",
      "properties": {
        "norad_id": 34979,
        "name": "COSMOS 2251 DEB",
        "group": "cosmos-2251-debris",
        "lat": 49.9530685700032,
        "lon": 85.77720107028516,
        "alt_km": 645.4448931242814,
        "timestamp": "2025-12-03T08:58:46.398678+00:00",
        "meta_object_name": "COSMOS 2251 DEB",
        "meta_object_id": "1993-036AFJ",
        "meta_epoch": "2025-12-02T22:40:08.008032",
        "meta_mean_motion": 14.79015939,
        "meta_eccentricity": 0.0049261,
        "meta_inclination": 74.0398,
        "meta_ra_of_asc_node": 286.5287,
        "meta_arg_of_pericenter": 6.5543,
        "meta_mean_anomaly": 353.6266,
        "meta_ephemeris_type": 0,
        "meta_classification_type": "U",
        "meta_norad_cat_id": 34979,
        "meta_element_set_no": 999,
        "meta_rev_at_epoch": 88075,
        "meta_bstar": 0.0020317,
        "meta_mean_motion_dot": 0.00015327,
        "meta_mean_motion_ddot": 0,
        "tle_line1": "1 34979U 93036AFJ 25336.94453713  .00015327  00000+0  20317-2 0  9990",
        "tle_line2": "2 34979  74.0398 286.5287 0049261   6.5543 353.6266 14.79015939880755"
      },
      "geometry": {
        "type": "Point",
        "coordinates": [
          85.77720107028516,
          49.9530685700032
        ]
      }
    },
    {
      "type": "Feature",
      "properties": {
        "norad_id": 34990,
        "name": "COSMOS 2251 DEB",
        "group": "cosmos-2251-debris",
        "lat": 30.57669196630744,
        "lon": -81.57068011055527,
        "alt_km": 743.091142764305,
        "timestamp": "2025-12-03T08:58:46.398689+00:00",
        "meta_object_name": "COSMOS 2251 DEB",
        "meta_object_id": "1993-036AFN",
        "meta_epoch": "2025-11-30T02:35:36.793536",
        "meta_mean_motion": 14.42317714,
        "meta_eccentricity": 0.00161518,
        "meta_inclination": 74.0452,
        "meta_ra_of_asc_node": 274.7497,
        "meta_arg_of_pericenter": 338.715,
        "meta_mean_anomaly": 21.3332,
        "meta_ephemeris_type": 0,
        "meta_classification_type": "U",
        "meta_norad_cat_id": 34990,
        "meta_element_set_no": 999,
        "meta_rev_at_epoch": 87164,
        "meta_bstar": 0.00051741405,
        "meta_mean_motion_dot": 1.685e-05,
        "meta_mean_motion_ddot": 0,
        "tle_line1": "1 34990U 93036AFN 25334.10806474  .00001685  00000+0  51741-3 0  9993",
        "tle_line2": "2 34990  74.0452 274.7497 0016151 338.7150  21.3332 14.42317714871644"
      },
      "geometry": {
        "type": "Point",
        "coordinates": [
          -81.57068011055527,
          30.57669196630744
        ]
      }
    },
    {
      "type": "Feature",
      "properties": {
        "norad_id": 34997,
        "name": "COSMOS 2251 DEB",
        "group": "cosmos-2251-debris",
        "lat": 73.58851023074733,
        "lon": 69.75905434003644,
        "alt_km": 792.5070181657975,
        "timestamp": "2025-12-03T08:58:46.398699+00:00",
        "meta_object_name": "COSMOS 2251 DEB",
        "meta_object_id": "1993-036AFV",
        "meta_epoch": "2025-11-29T18:09:59.976288",
        "meta_mean_motion": 14.45289096,
        "meta_eccentricity": 0.00981723,
        "meta_inclination": 73.8805,
        "meta_ra_of_asc_node": 335.6343,
        "meta_arg_of_pericenter": 312.7593,
        "meta_mean_anomaly": 46.5333,
        "meta_ephemeris_type": 0,
        "meta_classification_type": "U",
        "meta_norad_cat_id": 34997,
        "meta_element_set_no": 999,
        "meta_rev_at_epoch": 70559,
        "meta_bstar": 0.0014679127,
        "meta_mean_motion_dot": 5.442e-05,
        "meta_mean_motion_ddot": 0,
        "tle_line1": "1 34997U 93036AFV 25333.75694417  .00005442  00000+0  14679-2 0  9995",
        "tle_line2": "2 34997  73.8805 335.6343 0098172 312.7593  46.5333 14.45289096705597"
      },
      "geometry": {
        "type": "Point",
        "coordinates": [
          69.75905434003644,
          73.58851023074733
        ]
      }
    }
  ]
}